CCSDS_OMM_VERS,COMMENT,CREATION_DATE,ORIGINATOR,OBJECT_NAME,OBJECT_ID,CENTER_NAME,REF_FRAME,TIME_SYSTEM,MEAN_ELEMENT_THEORY,EPOCH,MEAN_MOTION,ECCENTRICITY,INCLINATION,RA_OF_ASC_NODE,ARG_OF_PERICENTER,MEAN_ANOMALY,EPHEMERIS_TYPE,CLASSIFICATION_TYPE,NORAD_CAT_ID,ELEMENT_SET_NO,REV_AT_EPOCH,BSTAR,MEAN_MOTION_DOT,MEAN_MOTION_DDOT,SEMIMAJOR_AXIS,PERIOD,APOAPSIS,PERIAPSIS,OBJECT_TYPE,RCS_SIZE,COUNTRY_CODE,LAUNCH_DATE,SITE,DECAY_DATE,FILE,GP_ID,TLE_LINE0,TLE_LINE1,TLE_LINE2
2,GENERATED VIA SPACE-TRACK.ORG API,2022-12-05T22:26:13,18 SPCS,GALILEO-FM3,2012-055A,EARTH,TEME,UTC,SGP4,2022-12-04T23:41:42.619776,1.70473617,0.000222,55.1886,137.009,228.4561,131.5108,0,U,38857,999,6315,0.0,5.8e-07,0,29600.364,844.705,23228.801,23215.658,PAYLOAD,LARGE,ESA,2012-10-12,FRGUI,,3682179,219599132,0 GALILEO-FM3,1 38857U 12055A   22338.98729884  .00000058  00000-0  00000+0 0  9999,2 38857  55.1886 137.0090 0002220 228.4561 131.5108  1.70473617 63150
2,GENERATED VIA SPACE-TRACK.ORG API,2022-12-08T03:13:54,18 SPCS,GALILEO-FM3,2012-055A,EARTH,TEME,UTC,SGP4,2022-12-07T08:00:24.150240,1.70473658,0.0002249,55.1907,136.9446,229.6462,130.3051,0,U,38857,999,6305,0.0,4.4e-07,0,29600.36,844.705,23228.882,23215.568,PAYLOAD,LARGE,ESA,2012-10-12,FRGUI,,3684212,219734720,0 GALILEO-FM3,1 38857U 12055A   22341.33361285  .00000044  00000-0  00000-0 0  9995,2 38857  55.1907 136.9446 0002249 229.6462 130.3051  1.70473658 63059
2,GENERATED VIA SPACE-TRACK.ORG API,2022-12-07T22:46:14,18 SPCS,GALILEO-FM3,2012-055A,EARTH,TEME,UTC,SGP4,2022-12-07T08:00:24.150240,1.70473658,0.0002249,55.1907,136.9446,229.6462,130.3051,0,U,38857,999,6319,0.0,4.4e-07,0,29600.36,844.705,23228.882,23215.568,PAYLOAD,LARGE,ESA,2012-10-12,FRGUI,,3683951,219714174,0 GALILEO-FM3,1 38857U 12055A   22341.33361285  .00000044  00000-0  00000+0 0  9994,2 38857  55.1907 136.9446 0002249 229.6462 130.3051  1.70473658 63194
2,GENERATED VIA SPACE-TRACK.ORG API,2022-12-08T18:21:51,18 SPCS,GALILEO-FM3,2012-055A,EARTH,TEME,UTC,SGP4,2022-12-07T08:00:24.153696,1.70473663,0.0002253,55.1908,136.9446,229.676,130.2753,0,U,38857,999,6305,0.0,4.4e-07,0,29600.359,844.705,23228.893,23215.555,PAYLOAD,LARGE,ESA,2012-10-12,FRGUI,,3684614,219768289,0 GALILEO-FM3,1 38857U 12055A   22341.33361289  .00000044  00000-0  00000-0 0  9999,2 38857  55.1908 136.9446 0002253 229.6760 130.2753  1.70473663 63050
2,GENERATED VIA SPACE-TRACK.ORG API,2022-12-11T04:17:45,18 SPCS,GALILEO-FM3,2012-055A,EARTH,TEME,UTC,SGP4,2022-12-10T20:28:28.437888,1.70473705,0.00023,55.192,136.8479,229.6014,130.3412,0,U,38857,999,6311,0.0,4.8e-07,0,29600.354,844.705,23229.027,23215.411,PAYLOAD,LARGE,ESA,2012-10-12,FRGUI,,3688965,219969651,0 GALILEO-FM3,1 38857U 12055A   22344.85310692  .00000048  00000-0  00000-0 0  9995,2 38857  55.1920 136.8479 0002300 229.6014 130.3412  1.70473705 63111
2,GENERATED VIA SPACE-TRACK.ORG API,2022-12-11T06:46:23,18 SPCS,GALILEO-FM3,2012-055A,EARTH,TEME,UTC,SGP4,2022-12-10T20:28:28.437888,1.70473705,0.00023,55.192,136.8479,229.6014,130.3412,0,U,38857,999,6325,0.0,4.8e-07,0,29600.354,844.705,23229.027,23215.411,PAYLOAD,LARGE,ESA,2012-10-12,FRGUI,,3689108,219982726,0 GALILEO-FM3,1 38857U 12055A   22344.85310692  .00000048  00000-0  00000+0 0  9994,2 38857  55.1920 136.8479 0002300 229.6014 130.3412  1.70473705 63256
2,GENERATED VIA SPACE-TRACK.ORG API,2022-12-15T06:56:14,18 SPCS,GALILEO-FM3,2012-055A,EARTH,TEME,UTC,SGP4,2022-12-14T08:56:35.403072,1.70473678,0.0002388,55.1934,136.7512,230.715,129.2378,0,U,38857,999,6331,0.0,6.7e-07,0,29600.357,844.705,23229.291,23215.154,PAYLOAD,LARGE,ESA,2012-10-12,FRGUI,,3700084,220421320,0 GALILEO-FM3,1 38857U 12055A   22348.37263198  .00000067  00000-0  00000+0 0  9994,2 38857  55.1934 136.7512 0002388 230.7150 129.2378  1.70473678 63312
2,GENERATED VIA SPACE-TRACK.ORG API,2022-12-15T18:29:43,18 SPCS,GALILEO-FM3,2012-055A,EARTH,TEME,UTC,SGP4,2022-12-15T13:05:57.764544,1.70473663,0.00024,55.1938,136.719,230.8674,129.0891,0,U,38857,999,6319,0.0,7.3e-07,0,29600.359,844.705,23229.328,23215.12,PAYLOAD,LARGE,ESA,2012-10-12,FRGUI,,3702025,220480841,0 GALILEO-FM3,1 38857U 12055A   22349.54580746  .00000073  00000-0  00000-0 0  9993,2 38857  55.1938 136.7190 0002400 230.8674 129.0891  1.70473663 63193
2,GENERATED VIA SPACE-TRACK.ORG API,2022-12-18T02:46:40,18 SPCS,GALILEO-FM3,2012-055A,EARTH,TEME,UTC,SGP4,2022-12-17T07:20:00.727872,1.70473603,0.0002458,55.1944,136.6706,231.581,128.3766,0,U,38857,999,6322,0.0,7.8e-07,0,29600.366,844.706,23229.507,23214.955,PAYLOAD,LARGE,ESA,2012-10-12,FRGUI,,3707070,220750229,0 GALILEO-FM3,1 38857U 12055A   22351.30556398  .00000078  00000-0  00000-0 0  9991,2 38857  55.1944 136.6706 0002458 231.5810 128.3766  1.70473603 63226
2,GENERATED VIA SPACE-TRACK.ORG API,2022-12-17T22:26:14,18 SPCS,GALILEO-FM3,2012-055A,EARTH,TEME,UTC,SGP4,2022-12-17T07:20:00.727872,1.70473603,0.0002458,55.1944,136.6706,231.581,128.3766,0,U,38857,999,6336,0.0,7.8e-07,0,29600.366,844.706,23229.507,23214.955,PAYLOAD,LARGE,ESA,2012-10-12,FRGUI,,3706341,220718156,0 GALILEO-FM3,1 38857U 12055A   22351.30556398  .00000078  00000-0  00000+0 0  9990,2 38857  55.1944 136.6706 0002458 231.5810 128.3766  1.70473603 63361
2,GENERATED VIA SPACE-TRACK.ORG API,2022-12-18T17:49:27,18 SPCS,GALILEO-FM3,2012-055A,EARTH,TEME,UTC,SGP4,2022-12-17T21:24:41.505984,1.70473577,0.0002471,55.1945,136.6545,231.5545,128.402,0,U,38857,999,6323,0.0,7.8e-07,0,29600.369,844.706,23229.548,23214.92,PAYLOAD,LARGE,ESA,2012-10-12,FRGUI,,3708942,220819988,0 GALILEO-FM3,1 38857U 12055A   22351.89214706  .00000078  00000-0  00000-0 0  9999,2 38857  55.1945 136.6545 0002471 231.5545 128.4020  1.70473577 63233
2,GENERATED VIA SPACE-TRACK.ORG API,2022-12-20T18:47:11,18 SPCS,GALILEO-FM3,2012-055A,EARTH,TEME,UTC,SGP4,2022-12-19T15:38:43.156896,1.70473536,0.0002511,55.1952,136.606,231.8535,128.095,0,U,38857,999,6326,0.0,7.3e-07,0,29600.374,844.706,23229.671,23214.806,PAYLOAD,LARGE,ESA,2012-10-12,FRGUI,,3713130,221020153,0 GALILEO-FM3,1 38857U 12055A   22353.65188839  .00000073  00000-0  00000-0 0  9997,2 38857  55.1952 136.6060 0002511 231.8535 128.0950  1.70473536 63266
2,GENERATED VIA SPACE-TRACK.ORG API,2022-12-20T07:16:16,18 SPCS,GALILEO-FM3,2012-055A,EARTH,TEME,UTC,SGP4,2022-12-19T15:38:43.156896,1.70473536,0.0002511,55.1952,136.606,231.8535,128.095,0,U,38857,999,6340,0.0,7.3e-07,0,29600.374,844.706,23229.671,23214.806,PAYLOAD,LARGE,ESA,2012-10-12,FRGUI,,3712186,220981357,0 GALILEO-FM3,1 38857U 12055A   22353.65188839  .00000073  00000-0  00000+0 0  9996,2 38857  55.1952 136.6060 0002511 231.8535 128.0950  1.70473536 63402
2,GENERATED VIA SPACE-TRACK.ORG API,2022-12-23T03:05:02,18 SPCS,GALILEO-FM3,2012-055A,EARTH,TEME,UTC,SGP4,2022-12-21T23:57:24.571584,1.70473483,0.0002561,55.1962,136.5416,232.858,127.074,0,U,38857,999,6330,0.0,5.5e-07,0,29600.38,844.706,23229.826,23214.664,PAYLOAD,LARGE,ESA,2012-10-12,FRGUI,,3719655,221228925,0 GALILEO-FM3,1 38857U 12055A   22355.99820106  .00000055  00000-0  00000-0 0  9996,2 38857  55.1962 136.5416 0002561 232.8580 127.0740  1.70473483 63309
2,GENERATED VIA SPACE-TRACK.ORG API,2022-12-22T22:46:13,18 SPCS,GALILEO-FM3,2012-055A,EARTH,TEME,UTC,SGP4,2022-12-21T23:57:24.571584,1.70473483,0.0002561,55.1962,136.5416,232.858,127.074,0,U,38857,999,6344,0.0,5.5e-07,0,29600.38,844.706,23229.826,23214.664,PAYLOAD,LARGE,ESA,2012-10-12,FRGUI,,3719315,221205328,0 GALILEO-FM3,1 38857U 12055A   22355.99820106  .00000055  00000-0  00000+0 0  9995,2 38857  55.1962 136.5416 0002561 232.8580 127.0740  1.70473483 63444
2,GENERATED VIA SPACE-TRACK.ORG API,2022-12-23T18:35:41,18 SPCS,GALILEO-FM3,2012-055A,EARTH,TEME,UTC,SGP4,2022-12-22T14:02:05.046432,1.70473471,0.0002569,55.1965,136.5254,233.1388,126.7898,0,U,38857,999,6331,0.0,5e-07,0,29600.381,844.706,23229.851,23214.642,PAYLOAD,LARGE,ESA,2012-10-12,FRGUI,,3720302,221269631,0 GALILEO-FM3,1 38857U 12055A   22356.58478063  .00000050  00000-0  00000-0 0  9998,2 38857  55.1965 136.5254 0002569 233.1388 126.7898  1.70473471 63318
2,GENERATED VIA SPACE-TRACK.ORG API,2022-12-25T18:40:17,18 SPCS,GALILEO-FM3,2012-055A,EARTH,TEME,UTC,SGP4,2022-12-24T22:20:48.068160,1.70473446,0.0002629,55.1974,136.4609,234.0373,125.8859,0,U,38857,999,6335,0.0,3.8e-07,0,29600.384,844.706,23230.031,23214.467,PAYLOAD,LARGE,ESA,2012-10-12,FRGUI,,3722051,221411510,0 GALILEO-FM3,1 38857U 12055A   22358.93111190  .00000038  00000-0  00000-0 0  9990,2 38857  55.1974 136.4609 0002629 234.0373 125.8859  1.70473446 63355
2,GENERATED VIA SPACE-TRACK.ORG API,2022-12-25T14:46:13,18 SPCS,GALILEO-FM3,2012-055A,EARTH,TEME,UTC,SGP4,2022-12-24T22:20:48.068160,1.70473446,0.0002629,55.1974,136.4609,234.0373,125.8859,0,U,38857,999,6349,0.0,3.8e-07,0,29600.384,844.706,23230.031,23214.467,PAYLOAD,LARGE,ESA,2012-10-12,FRGUI,,3721868,221392007,0 GALILEO-FM3,1 38857U 12055A   22358.93111190  .00000038  00000-0  00000+0 0  9999,2 38857  55.1974 136.4609 0002629 234.0373 125.8859  1.70473446 63490
2,GENERATED VIA SPACE-TRACK.ORG API,2022-12-28T02:44:17,18 SPCS,GALILEO-FM3,2012-055A,EARTH,TEME,UTC,SGP4,2022-12-27T06:39:32.863680,1.70473451,0.0002694,55.1983,136.3964,234.4585,125.4717,0,U,38857,999,6339,0.0,3.9e-07,0,29600.384,844.706,23230.223,23214.274,PAYLOAD,LARGE,ESA,2012-10-12,FRGUI,,3724149,221614233,0 GALILEO-FM3,1 38857U 12055A   22361.27746370  .00000039  00000-0  00000-0 0  9996,2 38857  55.1983 136.3964 0002694 234.4585 125.4717  1.70473451 63398
2,GENERATED VIA SPACE-TRACK.ORG API,2022-12-27T23:16:13,18 SPCS,GALILEO-FM3,2012-055A,EARTH,TEME,UTC,SGP4,2022-12-27T06:39:32.863680,1.70473451,0.0002694,55.1983,136.3964,234.4585,125.4717,0,U,38857,999,6353,0.0,3.9e-07,0,29600.384,844.706,23230.223,23214.274,PAYLOAD,LARGE,ESA,2012-10-12,FRGUI,,3724030,221597020,0 GALILEO-FM3,1 38857U 12055A   22361.27746370  .00000039  00000-0  00000+0 0  9995,2 38857  55.1983 136.3964 0002694 234.4585 125.4717  1.70473451 63534
